IRIDIUM 159             
1 43578U 18061K   24337.29058144  .00001007  00000+0  35247-3 0  9996
2 43578  86.3945 291.5043 0002157  86.3581 273.7862 14.34215977332842
IRIDIUM 180             
1 43922U 19002A   24337.22031007  .00000848  00000+0  29573-3 0  9994
2 43922  86.3996 228.3991 0002164  83.3597 276.7845 14.34216594308442
IRIDIUM 176             
1 43923U 19002B   24337.40587501  .00003047  00000+0  47903-3 0  9991
2 43923  86.6122 228.3301 0002988  85.8911 274.2647 14.72272993316598
IRIDIUM 168             
1 43924U 19002C   24337.42327400  .00000128  00000+0  38774-4 0  9998
2 43924  86.3998 228.3761 0002031  84.0042 276.1386 14.34218378308454
IRIDIUM 173             
1 43925U 19002D   24337.41057665  .00000850  00000+0  29636-3 0  9999
2 43925  86.3995 228.2935 0002069  82.4829 277.6602 14.34225275308439
IRIDIUM 169             
1 43926U 19002E   24337.51986568  .00001149  00000+0  36917-3 0  9996
2 43926  86.4222 259.8649 0003495  58.0453 302.1085 14.38606416309470
IRIDIUM 172             
1 43927U 19002F   24337.40424455  .00000310  00000+0  10354-3 0  9993
2 43927  86.3993 228.3021 0002038  86.6943 273.4486 14.34216709308442
IRIDIUM 175             
1 43928U 19002G   24337.53642393  .00002552  00000+0  40060-3 0  9998
2 43928  86.1531 191.9625 0001745  47.3794 312.7569 14.72263624316602
